IRIDIUM 39              
1 25042U 97069D   25216.87531014  .00000593  00000+0  14968-3 0  9996
2 25042  86.3945 190.2668 0019235 138.5834 221.6832 14.49265806456019
IRIDIUM 38              
1 25043U 97069E   25216.94360237  .00000401  00000+0  12583-3 0  9991
2 25043  86.3955 212.6456 0001110  29.8886 330.2375 14.38149220452965
IRIDIUM 42              
1 25077U 97077A   25216.73104979  .00000399  00000+0  12974-3 0  9993
2 25077  86.3950 218.9623 0001836  71.0102 289.1293 14.36381643448160
IRIDIUM 44              
1 25078U 97077B   25216.90188123  .00000411  00000+0  12366-3 0  9996
2 25078  86.3974 200.6965 0001488 143.9793 216.1506 14.40272587450714
IRIDIUM 45              
1 25104U 97082A   25216.48095142  .00024090  00000+0  82712-3 0  9994
2 25104  86.3571  24.4079 0114588 149.7485 211.0444 15.23832812459396
IRIDIUM 24              
1 25105U 97082B   25216.88156498  .00000400  00000+0  11557-3 0  9999
2 25105  86.3863  59.6343 0009285 279.4671  80.5479 14.42135032450231
IRIDIUM 51              
1 25262U 98018A   25216.53755803  .00035846  00000+0  72035-3 0  9990
2 25262  86.3806  31.8308 0082655  64.5945 296.3837 15.42757733454478
IRIDIUM 57              
1 25273U 98019B   25216.81317990  .00000257  00000+0  81966-4 0  9997
2 25273  86.3983 124.8975 0002082  84.6126 275.5309 14.35920060431765
